TRANSPORTER-12 OBJECT AZ
1 62656U 25009AZ  26068.71026235  .00016057  00000+0  54903-3 0  9991
2 62656  97.3981 151.9913 0000987  45.3581 314.7740 15.30349724 63792
STARLINK-35929          
1 66625U 25271J   26068.51757364  .00024975  00000+0  85400-3 0  9998
2 66625  53.1596 140.4994 0001638  48.6022 311.5120 15.30143185 17548
